{
"type": "FeatureCollection",
"name": "regions_offshore_base_s_5",
"crs": { "type": "name", "properties": { "name": "urn:ogc:def:crs:OGC:1.3:CRS84" } },
"features": [
{ "type": "Feature", "properties": { "name": "BE0 4" }, "geometry": { "type": "Polygon", "coordinates": [ [ [ 3.181843400153042, 51.330772042296019 ], [ 3.172323227335312, 51.32723331436631 ], [ 3.122709751554027, 51.315511703702441 ], [ 3.075325727500484, 51.301041006737478 ], [ 3.061090349840015, 51.291980505296181 ], [ 3.000564456284877, 51.266019105797398 ], [ 2.929002404537613, 51.237683773087866 ], [ 2.921789646575263, 51.236845373815214 ], [ 2.906479000805575, 51.22866845088862 ], [ 2.896753953970064, 51.224416514187276 ], [ 2.783881425687468, 51.175066947681785 ], [ 2.74120581119945, 51.158332824400503 ], [ 2.71993494004559, 51.151486754210623 ], [ 2.703983619392357, 51.144454961503321 ], [ 2.697914004627961, 51.141779303871942 ], [ 2.643735409162076, 51.125713944343204 ], [ 2.588090657957878, 51.103109479319357 ], [ 2.546263456693708, 51.089314341384153 ], [ 2.543611111111346, 51.093611111111471 ], [ 2.390277777778067, 51.269166666666848 ], [ 2.305862364486217, 51.429509654620233 ], [ 2.238333333455898, 51.55777777807404 ], [ 2.253333333625051, 51.613055555655279 ], [ 2.305862364499262, 51.657213171717558 ], [ 2.481666666769144, 51.80500000030645 ], [ 2.53933305536961, 51.876114444299191 ], [ 2.804685489386502, 51.717287618385122 ], [ 3.00097492911017, 51.599798480637936 ], [ 3.001929524901856, 51.599227106871624 ], [ 3.081388888889194, 51.551666666666819 ], [ 3.171358314163597, 51.505631355645285 ], [ 3.212222222222437, 51.484722222222388 ], [ 3.296388888889226, 51.450000000000131 ], [ 3.33980319509124, 51.396728339249805 ], [ 3.353888888889173, 51.379444444444601 ], [ 3.364583333333513, 51.373611111111188 ], [ 3.369458556167729, 51.36682200413253 ], [ 3.363399744402898, 51.367909670295262 ], [ 3.313129902023633, 51.359308243081131 ], [ 3.31144480811845, 51.358935360848406 ], [ 3.285185456044218, 51.353124618906293 ], [ 3.266544580268544, 51.345991968954479 ], [ 3.251190543109345, 51.342482924047999 ], [ 3.22953867956673, 51.340166449422384 ], [ 3.22455561165242, 51.358748317081364 ], [ 3.214284300780008, 51.356276154521169 ], [ 3.223969221302809, 51.347692846847679 ], [ 3.217527747108164, 51.34014415702751 ], [ 3.194800138815737, 51.343757867731625 ], [ 3.184964656493889, 51.347398639036129 ], [ 3.180620431887633, 51.360033512136965 ], [ 3.176519091919038, 51.356927137255006 ], [ 3.16819214834922, 51.35062026961009 ], [ 3.181843400153042, 51.330772042296019 ] ] ] } }
]
}
