{
"type": "FeatureCollection",
"name": "regions_onshore_base_s_5",
"crs": { "type": "name", "properties": { "name": "urn:ogc:def:crs:OGC:1.3:CRS84" } },
"features": [
{ "type": "Feature", "properties": { "name": "BE0 0" }, "geometry": { "type": "MultiPolygon", "coordinates": [ [ [ [ 4.910641424000062, 51.402715066000042 ], [ 4.917833958000074, 51.398808906000056 ], [ 4.927334467000037, 51.399124321000045 ], [ 4.928706, 51.396083999000041 ], [ 4.963890271000025, 51.422522629000071 ], [ 5.00319954500003, 51.443774441000073 ], [ 5.010374, 51.458251999000026 ], [ 5.007951781000031, 51.465587022000079 ], [ 5.011128388000031, 51.471941294000032 ], [ 5.016353500000037, 51.475558999000043 ], [ 5.021265969000069, 51.480254795000064 ], [ 5.022498591000044, 51.481432974000029 ], [ 5.036765077000041, 51.486933472000032 ], [ 5.039677220000044, 51.485649808000062 ], [ 5.038779612000042, 51.478708403000041 ], [ 5.045863366000049, 51.471686626000064 ], [ 5.049744, 51.471122999000045 ], [ 5.066413179000051, 51.471196028000065 ], [ 5.080153686000074, 51.469797051000057 ], [ 5.103257077000023, 51.433021906000079 ], [ 5.10218, 51.429004999000028 ], [ 5.071045, 51.393420999000057 ], [ 5.115479278000066, 51.361915107000073 ], [ 5.120852310000032, 51.354551554000068 ], [ 5.131386218000046, 51.347104916000035 ], [ 5.134464500000036, 51.315490499000077 ], [ 5.162362023000071, 51.310742202000029 ], [ 5.174154516000044, 51.316047562000051 ], [ 5.200245, 51.322619499000041 ], [ 5.241098, 51.305662999000049 ], [ 5.226578017000065, 51.269200955000031 ], [ 5.237716500000033, 51.261600499000053 ], [ 5.263278858000035, 51.266607595000039 ], [ 5.295744919000072, 51.261775420000049 ], [ 5.33606764600006, 51.263447401000064 ], [ 5.341771737000045, 51.265729947000068 ], [ 5.34769251900002, 51.275323886000081 ], [ 5.372641577478271, 51.270634329256183 ], [ 5.198867894049038, 50.83290572627314 ], [ 5.073520955962485, 50.787772532399671 ], [ 4.785881050127705, 50.857201014015878 ], [ 4.782999900041132, 50.855990906111032 ], [ 4.742394143311781, 50.889580264377869 ], [ 4.481998624340012, 51.290843053575109 ], [ 4.531546156757949, 51.442442296516852 ], [ 4.535450500000024, 51.422889499000064 ], [ 4.575701970000068, 51.432604199000082 ], [ 4.62794556800003, 51.426362292000078 ], [ 4.639974443000028, 51.422753684000043 ], [ 4.651757861000021, 51.426247979000038 ], [ 4.669544, 51.426383999000052 ], [ 4.667285639000056, 51.444439228000078 ], [ 4.692802150000034, 51.452317343000061 ], [ 4.704348141000025, 51.466607542000077 ], [ 4.715785440000047, 51.469155098000044 ], [ 4.72877565400006, 51.483376307000071 ], [ 4.734006500000021, 51.485591499000066 ], [ 4.746144537000021, 51.48961305000006 ], [ 4.750610622000067, 51.497989162000067 ], [ 4.759926, 51.502464499000041 ], [ 4.77534939800006, 51.504837565000059 ], [ 4.780179216000022, 51.503821600000038 ], [ 4.785009897000066, 51.499417578000077 ], [ 4.798836234000021, 51.499158732000069 ], [ 4.815800986000056, 51.494235681000077 ], [ 4.82248400800006, 51.483083233000059 ], [ 4.841390500000045, 51.480712999000048 ], [ 4.836610528000051, 51.463106449000065 ], [ 4.842809737000039, 51.458797501000049 ], [ 4.839475527000047, 51.456840390000082 ], [ 4.834406909000052, 51.457366916000069 ], [ 4.823914197000022, 51.448333603000037 ], [ 4.829165, 51.422525999000072 ], [ 4.826864500000056, 51.422202999000035 ], [ 4.803734228000053, 51.428393135000078 ], [ 4.792365225000026, 51.429141102000074 ], [ 4.78504408200007, 51.432267732000071 ], [ 4.774536047000026, 51.431522812000026 ], [ 4.768985844000042, 51.429005492000044 ], [ 4.769189778000055, 51.41947659200008 ], [ 4.772192850000067, 51.41512523800003 ], [ 4.787863855000069, 51.409746117000054 ], [ 4.837187565000022, 51.414422945000069 ], [ 4.846174, 51.412914499000067 ], [ 4.851538772000026, 51.413926530000026 ], [ 4.859150692000071, 51.412915716000043 ], [ 4.859726500000022, 51.411399999000082 ], [ 4.867409, 51.409118999000043 ], [ 4.868940159000033, 51.412924135000026 ], [ 4.882915817000026, 51.415819948000035 ], [ 4.894544359000065, 51.413517529000046 ], [ 4.899618920586565, 51.414037492173705 ], [ 4.900789791000022, 51.414157465000073 ], [ 4.900709445000075, 51.411059501000068 ], [ 4.908394548000047, 51.40823266600006 ], [ 4.910641424000062, 51.402715066000042 ] ], [ [ 4.927639500000055, 51.395424499000057 ], [ 4.920383822000076, 51.39675257500005 ], [ 4.914105500000062, 51.395023999000045 ], [ 4.920863, 51.393687999000065 ], [ 4.927639500000055, 51.395424499000057 ] ] ], [ [ [ 4.936154540000075, 51.409448219000069 ], [ 4.936791456000037, 51.405311765000079 ], [ 4.933117013000071, 51.405089071000077 ], [ 4.930724615000031, 51.40739676700008 ], [ 4.936154540000075, 51.409448219000069 ] ] ], [ [ [ 4.834376626000051, 51.421201555000039 ], [ 4.840550629000063, 51.421496528000034 ], [ 4.83752002500006, 51.41832327000003 ], [ 4.832920670000021, 51.419142394000062 ], [ 4.834376626000051, 51.421201555000039 ] ] ], [ [ [ 4.921256042000039, 51.43692438000005 ], [ 4.919651643000066, 51.438247384000078 ], [ 4.922486774000049, 51.439744176000033 ], [ 4.919069860000036, 51.440687970000056 ], [ 4.922173698000051, 51.442625245000045 ], [ 4.920126431000028, 51.44588974900006 ], [ 4.923031876000039, 51.447410952000041 ], [ 4.925617908000049, 51.446621748000041 ], [ 4.927432228000043, 51.443894769000053 ], [ 4.925852820000046, 51.442709213000057 ], [ 4.927270581000073, 51.440292416000034 ], [ 4.933022134000055, 51.444127682000044 ], [ 4.938087237000047, 51.444699468000067 ], [ 4.939545190000047, 51.441801553000062 ], [ 4.93461103900006, 51.442114436000054 ], [ 4.936597795000068, 51.437828041000046 ], [ 4.938830458000041, 51.439345973000059 ], [ 4.942026019000025, 51.438921405000031 ], [ 4.937739915000066, 51.435173295000027 ], [ 4.939980527000046, 51.43419390300005 ], [ 4.939683139000067, 51.430785180000044 ], [ 4.936042003000068, 51.429419692000067 ], [ 4.933673890000023, 51.431078570000068 ], [ 4.928840201000071, 51.430479794000064 ], [ 4.926117221000027, 51.433393203000037 ], [ 4.917301948000045, 51.435412676000055 ], [ 4.921256042000039, 51.43692438000005 ] ] ], [ [ [ 4.950611824000021, 51.443342897000036 ], [ 4.943717161000052, 51.443695931000036 ], [ 4.945268732000045, 51.445382185000028 ], [ 4.949848622000047, 51.44606239500007 ], [ 4.950611824000021, 51.443342897000036 ] ] ], [ [ [ 4.94351111800006, 51.448697948000074 ], [ 4.941558254000029, 51.446329497000079 ], [ 4.934760355000037, 51.447458660000052 ], [ 4.933018773000072, 51.449637256000074 ], [ 4.95005345900006, 51.451963141000078 ], [ 4.952450740000074, 51.450161973000036 ], [ 4.94878021300002, 51.449112539000055 ], [ 4.947876783000027, 51.447329598000067 ], [ 4.945848176000027, 51.449059220000038 ], [ 4.94351111800006, 51.448697948000074 ] ] ], [ [ [ 4.53676330375878, 51.458405059888598 ], [ 4.542946119489946, 51.477322453719374 ], [ 4.548236, 51.473228499000072 ], [ 4.541656, 51.464889499000037 ], [ 4.53676330375878, 51.458405059888598 ] ] ] ] } },
{ "type": "Feature", "properties": { "name": "BE0 1" }, "geometry": { "type": "Polygon", "coordinates": [ [ [ 4.722699955188945, 50.102871191281267 ], [ 4.720072500000072, 50.102054499000076 ], [ 4.713358, 50.097022999000046 ], [ 4.701452059000076, 50.094521920000034 ], [ 4.69173500900007, 50.082641709000029 ], [ 4.687555394000071, 50.072015658000055 ], [ 4.68076813600004, 50.067383183000061 ], [ 4.687202446000072, 50.057964284000036 ], [ 4.696981, 50.059295499000029 ], [ 4.697069, 50.055404499000076 ], [ 4.699742, 50.052978499000062 ], [ 4.695758, 50.04865649900006 ], [ 4.695131, 50.047176499000045 ], [ 4.696325, 50.042534499000055 ], [ 4.6917, 50.03742199900006 ], [ 4.690586, 50.034011999000029 ], [ 4.687264, 50.02843849900006 ], [ 4.684906, 50.026771499000063 ], [ 4.687083, 50.024600999000029 ], [ 4.685756, 50.020389499000032 ], [ 4.685894, 50.014320499000064 ], [ 4.688503, 50.011382999000034 ], [ 4.685652287000039, 50.00775038200004 ], [ 4.686793716152852, 50.003761034507896 ], [ 4.684222990720404, 49.996665192462871 ], [ 4.669175285000051, 49.996891925000057 ], [ 4.633542282000064, 49.987612346000049 ], [ 4.600077, 49.986015499000075 ], [ 4.597349500000064, 49.986196499000073 ], [ 4.588358, 49.984138999000038 ], [ 4.581686, 49.983443999000031 ], [ 4.575997, 49.981128499000079 ], [ 4.573628, 49.980254999000067 ], [ 4.573772, 49.977020499000048 ], [ 4.572236, 49.97466649900008 ], [ 4.57015, 49.973632999000074 ], [ 4.561093929000037, 49.969697414000052 ], [ 4.541131306000068, 49.968683689000045 ], [ 4.531936719000043, 49.962032197000042 ], [ 4.523631044000069, 49.951397592000035 ], [ 4.516377294000051, 49.95049036000006 ], [ 4.511278, 49.946811499000034 ], [ 4.50477, 49.947495999000068 ], [ 4.498709, 49.948133499000051 ], [ 4.495178, 49.948504999000079 ], [ 4.485989500000073, 49.946059999000056 ], [ 4.480583, 49.947688999000036 ], [ 4.445756, 49.937179499000081 ], [ 4.440208314000074, 49.941077328000063 ], [ 4.432494, 49.941615999000078 ], [ 4.417922314000066, 49.946818333000067 ], [ 4.399139, 49.948398499000064 ], [ 4.391104729000062, 49.948184720000029 ], [ 4.380769172000043, 49.95375170300008 ], [ 4.372138462000066, 49.951747418000082 ], [ 4.355473969000059, 49.952396006000072 ], [ 4.35209511132957, 49.952310280263383 ], [ 4.416117632662323, 50.283971858702309 ], [ 4.427289711756432, 50.378676675432921 ], [ 4.437174786577041, 50.430803465046651 ], [ 4.437186312769201, 50.666213547248283 ], [ 4.526732326134774, 50.731635016428555 ], [ 4.713006308991731, 50.775879714979361 ], [ 4.782999900041132, 50.855990906111032 ], [ 4.785881050127705, 50.857201014015878 ], [ 5.073520955962485, 50.787772532399671 ], [ 5.099129127459659, 50.446791212057555 ], [ 5.032796219556022, 50.409926607438877 ], [ 4.974567843439403, 50.371099841722717 ], [ 4.770779105139562, 50.235581612006371 ], [ 4.722699955188945, 50.102871191281267 ] ] ] } },
{ "type": "Feature", "properties": { "name": "BE0 2" }, "geometry": { "type": "Polygon", "coordinates": [ [ [ 4.437174786577041, 50.430803465046651 ], [ 4.427289711756432, 50.378676675432921 ], [ 4.416117632662323, 50.283971858702309 ], [ 4.35209511132957, 49.952310280263383 ], [ 4.34973739000003, 49.952250462000052 ], [ 4.335113283000055, 49.962332076000052 ], [ 4.323609498000053, 49.963403867000068 ], [ 4.310411177000049, 49.968404308000061 ], [ 4.305992500000059, 49.967975999000032 ], [ 4.29184908000002, 49.964058370000032 ], [ 4.270359451000047, 49.965028145000076 ], [ 4.256396555000038, 49.963666094000075 ], [ 4.233133, 49.957828499000072 ], [ 4.215951889000053, 49.95757817100008 ], [ 4.206612990000053, 49.957442103000062 ], [ 4.197322, 49.954494499000077 ], [ 4.19649890200003, 49.967295094000065 ], [ 4.178456950000054, 49.97236951800005 ], [ 4.173883, 49.976039999000079 ], [ 4.153538978000029, 49.974885135000079 ], [ 4.140853, 49.978759999000033 ], [ 4.155402136000021, 49.986035830000048 ], [ 4.162686399000052, 49.996936869000081 ], [ 4.160506889000033, 50.00093159100004 ], [ 4.153507306000051, 50.000715011000068 ], [ 4.147745967000048, 50.003109426000037 ], [ 4.135378, 50.015178499000058 ], [ 4.13742970800007, 50.021774277000077 ], [ 4.160736, 50.047527499000068 ], [ 4.171017, 50.047004499000082 ], [ 4.177030991000038, 50.046113611000067 ], [ 4.193335240000067, 50.049894011000049 ], [ 4.199245115000053, 50.05625131100004 ], [ 4.215951889000053, 50.061280254000053 ], [ 4.221562500000061, 50.062968999000077 ], [ 4.230340272000035, 50.07124536200007 ], [ 4.227497, 50.07968149900006 ], [ 4.215951889000053, 50.091925521000064 ], [ 4.213484725000058, 50.094541635000041 ], [ 4.203266147000022, 50.098547374000077 ], [ 4.202154578000034, 50.101525156000037 ], [ 4.206219600000054, 50.105187740000076 ], [ 4.198479436000071, 50.107271879000052 ], [ 4.197606, 50.109443499000065 ], [ 4.202865993000046, 50.115171405000069 ], [ 4.201793, 50.123119999000039 ], [ 4.198435138000036, 50.127917857000057 ], [ 4.199711702000059, 50.133130916000027 ], [ 4.196039610000071, 50.135039131000042 ], [ 4.178418369000042, 50.133712355000057 ], [ 4.159037725000076, 50.135208230000046 ], [ 4.155437587000051, 50.129630139000028 ], [ 4.15157812700005, 50.128673592000041 ], [ 4.136613606000026, 50.130913926000062 ], [ 4.126875, 50.134921999000028 ], [ 4.134860066000044, 50.142669002000048 ], [ 4.138612098000067, 50.15208124600008 ], [ 4.153479938000032, 50.160924967000028 ], [ 4.155019, 50.167133499000045 ], [ 4.154648738000049, 50.171529928000041 ], [ 4.14914735900004, 50.174338695000074 ], [ 4.156193578000057, 50.184006098000054 ], [ 4.156197, 50.192840499000056 ], [ 4.159714621000035, 50.193495720000044 ], [ 4.159987654000076, 50.201345354000068 ], [ 4.152925592000031, 50.207117294000057 ], [ 4.150811, 50.21342099900005 ], [ 4.166003, 50.21501549900006 ], [ 4.171749037000041, 50.21800225700008 ], [ 4.18284374600006, 50.232123324000042 ], [ 4.192747151000049, 50.239120633000027 ], [ 4.199014, 50.240455499000063 ], [ 4.20385624100004, 50.240663892000043 ], [ 4.206197874000054, 50.242217922000066 ], [ 4.211924054000065, 50.246017902000062 ], [ 4.215951889000053, 50.248935025000037 ], [ 4.219353144000024, 50.251398214000062 ], [ 4.221374031000039, 50.25568105800005 ], [ 4.215951889000053, 50.262721148000026 ], [ 4.20971725000004, 50.270814895000058 ], [ 4.204320500000051, 50.274158499000066 ], [ 4.178925150000055, 50.275150749000034 ], [ 4.175577350000026, 50.277907801000026 ], [ 4.175826702000052, 50.283756512000082 ], [ 4.169977377000066, 50.285044862000063 ], [ 4.16794722000003, 50.287992732000077 ], [ 4.16295778600005, 50.288218017000077 ], [ 4.160056689000044, 50.285102581000046 ], [ 4.155036033000044, 50.284292070000049 ], [ 4.149933674000067, 50.275357172000042 ], [ 4.162527620000049, 50.271665192000057 ], [ 4.167567071000065, 50.266295608000064 ], [ 4.167615084000033, 50.261222578000059 ], [ 4.163608, 50.257289999000079 ], [ 4.137345616000061, 50.257288138000035 ], [ 4.134911, 50.259090499000081 ], [ 4.138439669000036, 50.261931609000044 ], [ 4.135078526000029, 50.26697637500007 ], [ 4.135808157000042, 50.273621109000032 ], [ 4.124072, 50.273277499000073 ], [ 4.122357515000033, 50.277066655000056 ], [ 4.125507732000074, 50.287516137000068 ], [ 4.122815858000024, 50.296885190000069 ], [ 4.118032693000032, 50.302665650000051 ], [ 4.109930942000062, 50.302421421000076 ], [ 4.097824486000036, 50.312595888000033 ], [ 4.078786, 50.309249999000031 ], [ 4.078619, 50.310428499000068 ], [ 4.078315395000061, 50.312644668000075 ], [ 4.077196332000028, 50.32081237500006 ], [ 4.064441163000026, 50.330335500000047 ], [ 4.056163416000061, 50.332663887000081 ], [ 4.053732704000026, 50.338523409000061 ], [ 4.042494, 50.339832499000067 ], [ 4.037567, 50.342906999000036 ], [ 4.027774500000021, 50.358330499000033 ], [ 4.01797362800005, 50.356385067000076 ], [ 4.016138656000066, 50.352193520000071 ], [ 4.012454753000043, 50.350741705000075 ], [ 3.991568566000069, 50.34759727800008 ], [ 3.986822, 50.342456999000035 ], [ 3.97280743500005, 50.346711909000078 ], [ 3.967308, 50.340572499000075 ], [ 3.966215007000073, 50.349542906000067 ], [ 3.919753, 50.332175999000071 ], [ 3.90342839300007, 50.327693766000039 ], [ 3.886014, 50.327056999000035 ], [ 3.888831313000026, 50.330492850000041 ], [ 3.887493542000072, 50.340157157000078 ], [ 3.872530966000056, 50.338184392000073 ], [ 3.863648141000056, 50.341074581000044 ], [ 3.861616500000025, 50.343539999000029 ], [ 3.857778, 50.342460499000026 ], [ 3.858922, 50.345378999000047 ], [ 3.857522, 50.347881499000039 ], [ 3.852587344000028, 50.351309594000043 ], [ 3.843775, 50.35360349900003 ], [ 3.838778, 50.354327999000077 ], [ 3.833750464000047, 50.352690611000071 ], [ 3.825528450000036, 50.353286633000039 ], [ 3.82227492100003, 50.346540425000057 ], [ 3.811611, 50.344871499000078 ], [ 3.814178195000068, 50.351686276000066 ], [ 3.806103114000052, 50.355186383000046 ], [ 3.80389661647856, 50.354217967457849 ], [ 3.833619486311253, 50.439651174689338 ], [ 3.844485958214984, 50.761892193470672 ], [ 3.916922071006283, 50.848072646057794 ], [ 3.975050105836265, 50.954103224447238 ], [ 4.313226818390227, 50.950849063197161 ], [ 4.330116588918871, 50.899636213634778 ], [ 4.526732326134774, 50.731635016428555 ], [ 4.437186312769201, 50.666213547248283 ], [ 4.437174786577041, 50.430803465046651 ] ] ] } },
{ "type": "Feature", "properties": { "name": "BE0 3" }, "geometry": { "type": "MultiPolygon", "coordinates": [ [ [ [ 5.79343517500007, 49.551511881000067 ], [ 5.790540204054479, 49.553549501884881 ], [ 5.783978104000028, 49.558168226000078 ], [ 5.77703955000004, 49.560791309000081 ], [ 5.771254814000031, 49.562978089000069 ], [ 5.758997470000054, 49.560282122000046 ], [ 5.756299072000047, 49.555464741000037 ], [ 5.757128, 49.542587499000035 ], [ 5.740037518000065, 49.539031151000074 ], [ 5.734556, 49.545690499000045 ], [ 5.725216906000071, 49.543918577000056 ], [ 5.720014954000021, 49.540125863000071 ], [ 5.701239, 49.539550999000028 ], [ 5.692329265051323, 49.544411653314732 ], [ 5.689545933000034, 49.545930084000076 ], [ 5.68260023800002, 49.546123610000052 ], [ 5.678825027000073, 49.548713749000058 ], [ 5.669208, 49.548537999000075 ], [ 5.660724606000031, 49.553059352000048 ], [ 5.648020450000047, 49.550841865000052 ], [ 5.643839556000046, 49.550112075000072 ], [ 5.642311573000029, 49.547087514000054 ], [ 5.635442500000067, 49.544883499000036 ], [ 5.631672946000037, 49.541660341000068 ], [ 5.632778, 49.539588999000046 ], [ 5.62175975100007, 49.533967636000057 ], [ 5.617040067000062, 49.528672648000054 ], [ 5.620858686000076, 49.520577595000077 ], [ 5.6174, 49.514377499000034 ], [ 5.613860965000072, 49.509743869000033 ], [ 5.610967, 49.50595449900004 ], [ 5.607083, 49.507014999000035 ], [ 5.605291520000037, 49.509743869000033 ], [ 5.600897039000074, 49.516437111000073 ], [ 5.593664740000065, 49.521527366000043 ], [ 5.569868149000058, 49.527658597000027 ], [ 5.563291030000073, 49.526295400000038 ], [ 5.556648013000029, 49.528682122000077 ], [ 5.552595705000044, 49.527744949000066 ], [ 5.548871794904397, 49.525567354638113 ], [ 5.546499948000076, 49.524180393000051 ], [ 5.542408264000073, 49.516699637000045 ], [ 5.533422, 49.513438999000073 ], [ 5.532675500000039, 49.513103499000067 ], [ 5.531433, 49.512542499000062 ], [ 5.517026374000068, 49.509743869000033 ], [ 5.503360010000051, 49.507088895000038 ], [ 5.485087628000031, 49.507080730000041 ], [ 5.476628461000075, 49.499035808000031 ], [ 5.470883, 49.497237999000049 ], [ 5.465266675000066, 49.500528541000051 ], [ 5.463035267000066, 49.509743869000033 ], [ 5.447172, 49.51790599900005 ], [ 5.466060551000055, 49.526490462000027 ], [ 5.465585357000066, 49.536852495000062 ], [ 5.442525, 49.550292999000078 ], [ 5.441328, 49.552165999000067 ], [ 5.447098218000065, 49.554562263000037 ], [ 5.456758, 49.566676999000038 ], [ 5.446097859000076, 49.567404551000038 ], [ 5.438067730000057, 49.570326355000077 ], [ 5.42930846400003, 49.587927162000028 ], [ 5.430942, 49.592406999000048 ], [ 5.411112065000054, 49.607870147000028 ], [ 5.40234709200007, 49.610450484000069 ], [ 5.393511, 49.617110999000033 ], [ 5.375485, 49.622878999000079 ], [ 5.364294069000039, 49.623318424000047 ], [ 5.352218433000075, 49.630155825000031 ], [ 5.347344100000043, 49.630566941000041 ], [ 5.338783486000068, 49.616843172000074 ], [ 5.327675915000043, 49.616586750000067 ], [ 5.321936, 49.614211999000077 ], [ 5.31495, 49.612048999000081 ], [ 5.311992218000057, 49.613147925000078 ], [ 5.305642895000062, 49.623979027000075 ], [ 5.304892, 49.630077499000038 ], [ 5.306351, 49.631962999000052 ], [ 5.307944, 49.634021999000026 ], [ 5.308611, 49.636626999000043 ], [ 5.311686, 49.638278999000079 ], [ 5.314166500000056, 49.640782999000066 ], [ 5.318186, 49.644839999000055 ], [ 5.317806, 49.646449999000026 ], [ 5.332394, 49.652633499000046 ], [ 5.332406, 49.654269499000065 ], [ 5.328872, 49.657840499000031 ], [ 5.319128, 49.663692499000035 ], [ 5.307465261000061, 49.67193080800007 ], [ 5.286533, 49.681842999000025 ], [ 5.282181, 49.685592499000052 ], [ 5.281147, 49.685710999000037 ], [ 5.278627081000025, 49.69014581700003 ], [ 5.267174487000034, 49.695834439000066 ], [ 5.256342751000034, 49.693690121000031 ], [ 5.244002671000032, 49.686916127000075 ], [ 5.230739233000065, 49.690603795000072 ], [ 5.217191797000055, 49.68841419000006 ], [ 5.205950162000022, 49.695227331000069 ], [ 5.199633, 49.692340999000066 ], [ 5.191031784000074, 49.694600698000045 ], [ 5.166169, 49.692939999000032 ], [ 5.163889648000065, 49.698927655000034 ], [ 5.165049038000063, 49.711121107000054 ], [ 5.153738500000031, 49.717925999000045 ], [ 5.143608, 49.709323999000048 ], [ 5.139317296000058, 49.713139170000034 ], [ 5.126389974000062, 49.713027011000065 ], [ 5.123039, 49.717326999000079 ], [ 5.124842, 49.726958999000033 ], [ 5.118425, 49.735683499000061 ], [ 5.118469, 49.738364999000055 ], [ 5.116915500000061, 49.739886499000079 ], [ 5.096569, 49.759807499000033 ], [ 5.093458, 49.763747999000032 ], [ 5.087761, 49.76601049900006 ], [ 5.085911, 49.763644999000064 ], [ 5.083736, 49.76262299900003 ], [ 5.078308, 49.76281749900005 ], [ 5.071944, 49.761260499000059 ], [ 5.066413179000051, 49.76176080700003 ], [ 5.064530337356503, 49.763326238097818 ], [ 5.060164654000062, 49.766955952000046 ], [ 5.0468, 49.770156999000051 ], [ 5.021265969000069, 49.777652688000046 ], [ 5.014872, 49.779529499000034 ], [ 5.008142152000062, 49.783028091000062 ], [ 5.001753, 49.793681999000057 ], [ 4.996261877000052, 49.800181860000066 ], [ 4.969431, 49.801825999000073 ], [ 4.964996334000034, 49.798366682000051 ], [ 4.956410880000021, 49.801129170000081 ], [ 4.949130862000061, 49.79915900900005 ], [ 4.94295, 49.790694999000038 ], [ 4.94235, 49.792365999000026 ], [ 4.938806, 49.792850499000053 ], [ 4.932347, 49.789844499000026 ], [ 4.931408, 49.78672799900005 ], [ 4.920185949000029, 49.78826822700006 ], [ 4.905556475000026, 49.785757431000036 ], [ 4.897757821000027, 49.788561701000049 ], [ 4.887225, 49.788058999000043 ], [ 4.880697, 49.79246499900006 ], [ 4.875542500000051, 49.793376999000031 ], [ 4.8701, 49.793432499000062 ], [ 4.870767, 49.789516499000058 ], [ 4.861711, 49.789294999000049 ], [ 4.852823289000071, 49.793510071000071 ], [ 4.862848796000037, 49.802541785000074 ], [ 4.866257011000073, 49.813301469000066 ], [ 4.876140189000068, 49.819140576000052 ], [ 4.869100050000043, 49.82386473400004 ], [ 4.866499851000071, 49.84122743000006 ], [ 4.857476612000028, 49.84232554700003 ], [ 4.855064, 49.849036999000077 ], [ 4.851699535000023, 49.854343879000055 ], [ 4.851643385000045, 49.863745405000031 ], [ 4.861717457000054, 49.866829577000033 ], [ 4.865151067000056, 49.876400190000027 ], [ 4.87046024700004, 49.879726508000033 ], [ 4.871807425000043, 49.886965591000035 ], [ 4.878079008000043, 49.89418643700003 ], [ 4.886525926000047, 49.898842177000063 ], [ 4.88484853500006, 49.90155444100003 ], [ 4.877351621000059, 49.902403183000047 ], [ 4.879189967000059, 49.904932680000059 ], [ 4.886607076000075, 49.906288307000068 ], [ 4.889051479000045, 49.909298424000042 ], [ 4.881065702000058, 49.91658187400003 ], [ 4.880235045000063, 49.92200518900006 ], [ 4.875832, 49.924743499000044 ], [ 4.858575143000053, 49.932296204000068 ], [ 4.846707902000048, 49.948835183000028 ], [ 4.839559688000065, 49.950429490000033 ], [ 4.830585866000035, 49.949433543000055 ], [ 4.813808, 49.954284499000039 ], [ 4.790869, 49.958415999000067 ], [ 4.790234991000034, 49.969170838000082 ], [ 4.794673135000039, 49.976572590000046 ], [ 4.794060093000041, 49.981448597000053 ], [ 4.805378689000065, 49.983642423000049 ], [ 4.817579874000046, 49.994086100000061 ], [ 4.816188021000073, 50.002405908000071 ], [ 4.820298172000037, 50.010697509000067 ], [ 4.81730772700007, 50.016556243000082 ], [ 4.82107527900007, 50.022012698000026 ], [ 4.820256295000036, 50.026059385000053 ], [ 4.830048455000053, 50.03349804800007 ], [ 4.839302389000068, 50.037292534000073 ], [ 4.841247500000065, 50.042770499000028 ], [ 4.83931910900003, 50.046442463000062 ], [ 4.828308020000065, 50.049265632000072 ], [ 4.827257375000045, 50.058292613000049 ], [ 4.819183, 50.060676499000067 ], [ 4.820733, 50.065284499000029 ], [ 4.837727672000028, 50.06797689800004 ], [ 4.842110719000061, 50.076604519000057 ], [ 4.840439, 50.082801999000026 ], [ 4.845903012000065, 50.084937315000047 ], [ 4.838811685000053, 50.093728293000026 ], [ 4.850081, 50.100192999000058 ], [ 4.858787088000042, 50.099364315000059 ], [ 4.861923546000071, 50.092189922000045 ], [ 4.867729249000035, 50.088991653000051 ], [ 4.872370150000052, 50.088850838000042 ], [ 4.874742289000039, 50.094355456000073 ], [ 4.868760589000033, 50.097843905000047 ], [ 4.873119830000064, 50.108339319000038 ], [ 4.867989367000064, 50.119784565000032 ], [ 4.87902301400004, 50.130392744000062 ], [ 4.885464283000033, 50.130804400000045 ], [ 4.895011799000031, 50.135465545000045 ], [ 4.895311, 50.139777999000046 ], [ 4.882394785000031, 50.141428949000044 ], [ 4.876919500000042, 50.153495999000029 ], [ 4.871968, 50.153564499000026 ], [ 4.852968287000067, 50.152360427000076 ], [ 4.834098948000076, 50.153899877000072 ], [ 4.825276290000033, 50.160849735000056 ], [ 4.822417261000055, 50.16687534600004 ], [ 4.805650838000076, 50.15312674300003 ], [ 4.796697, 50.148677999000029 ], [ 4.779636, 50.141349999000056 ], [ 4.763139895000052, 50.136383910000063 ], [ 4.755917, 50.121650499000054 ], [ 4.748837829000024, 50.121755417000031 ], [ 4.752251573000024, 50.116788036000059 ], [ 4.751294, 50.111758999000074 ], [ 4.742012500000044, 50.108873999000082 ], [ 4.739292, 50.108028499000056 ], [ 4.722699955188945, 50.102871191281267 ], [ 4.770779105139562, 50.235581612006371 ], [ 4.974567843439403, 50.371099841722717 ], [ 5.032796219556022, 50.409926607438877 ], [ 5.099129127459659, 50.446791212057555 ], [ 5.073520955962485, 50.787772532399671 ], [ 5.198867894049038, 50.83290572627314 ], [ 5.372641577478271, 51.270634329256183 ], [ 5.417375, 51.262225999000066 ], [ 5.432371133000061, 51.275277396000035 ], [ 5.438299500000028, 51.276057999000045 ], [ 5.442940018000058, 51.282016333000058 ], [ 5.465235288000031, 51.285169040000028 ], [ 5.46816262369553, 51.286826804450129 ], [ 5.476137806000054, 51.291343189000031 ], [ 5.478699766000034, 51.296035271000051 ], [ 5.484878500000036, 51.300053499000057 ], [ 5.515765, 51.29532449900006 ], [ 5.522957358000042, 51.28614058200003 ], [ 5.556662738000057, 51.265392502000054 ], [ 5.555459008000071, 51.244337253000026 ], [ 5.560082, 51.22279099900004 ], [ 5.566283500000054, 51.220836499000029 ], [ 5.648020450000047, 51.199096716000042 ], [ 5.650535765000029, 51.19842754900003 ], [ 5.653474423000034, 51.195635890000062 ], [ 5.651250553000068, 51.19245010700007 ], [ 5.658136, 51.184715499000049 ], [ 5.66615620400006, 51.186006989000077 ], [ 5.678213165000045, 51.183273943000074 ], [ 5.689291905000061, 51.185004204000052 ], [ 5.709695133000025, 51.181101194000064 ], [ 5.718166425000049, 51.184317225000029 ], [ 5.739271921000068, 51.18628069500005 ], [ 5.745651, 51.189471999000034 ], [ 5.755920064000065, 51.184977733000039 ], [ 5.767845184000066, 51.182891726000037 ], [ 5.774704513000074, 51.178939839000066 ], [ 5.775894618000052, 51.17127468700005 ], [ 5.770345220000024, 51.167488229000071 ], [ 5.778367615000036, 51.161614780000036 ], [ 5.778827676000049, 51.152616116000047 ], [ 5.804929374000039, 51.161586582000041 ], [ 5.814580745000058, 51.160055635000049 ], [ 5.821253789000025, 51.165442592000034 ], [ 5.826478, 51.166755499000033 ], [ 5.837628256000073, 51.157121209000081 ], [ 5.837819070000023, 51.153475013000048 ], [ 5.854447673000038, 51.144577905000062 ], [ 5.846339973000056, 51.140482605000045 ], [ 5.840607423000051, 51.131752931000051 ], [ 5.824226880000026, 51.128415669000049 ], [ 5.813750500000026, 51.120940999000027 ], [ 5.808695486000033, 51.115555122000046 ], [ 5.809270721000075, 51.11093614400005 ], [ 5.81420021100007, 51.107986971000059 ], [ 5.82945623300003, 51.106327352000051 ], [ 5.833172500000046, 51.099658999000042 ], [ 5.825372476000041, 51.093199663000064 ], [ 5.808900085000062, 51.095905422000044 ], [ 5.797995716000059, 51.092623058000072 ], [ 5.796400175000031, 51.088198171000045 ], [ 5.804239710000047, 51.078458647000048 ], [ 5.797515, 51.073531499000069 ], [ 5.800322348000066, 51.064113496000061 ], [ 5.798274, 51.059853499000042 ], [ 5.790131913000039, 51.059407375000035 ], [ 5.77703955000004, 51.06219717700003 ], [ 5.772365359000048, 51.060794565000037 ], [ 5.770744303000072, 51.05011208600007 ], [ 5.75871888000006, 51.033197742000027 ], [ 5.760561109000037, 51.030762544000027 ], [ 5.774452072000031, 51.025594068000032 ], [ 5.775774856000055, 51.022126494000076 ], [ 5.773411500000066, 51.018817499000079 ], [ 5.766125500000044, 51.008715499000061 ], [ 5.765310086000056, 50.997400793000054 ], [ 5.748827755000036, 50.982356225000046 ], [ 5.737319700000057, 50.978177101000028 ], [ 5.720868954000025, 50.961995986000034 ], [ 5.722186708000038, 50.957793201000072 ], [ 5.727942076000033, 50.955517651000036 ], [ 5.734794364000038, 50.956160092000061 ], [ 5.745795044000033, 50.960913982000079 ], [ 5.754748583000037, 50.957886426000073 ], [ 5.757758464000062, 50.951626852000061 ], [ 5.74755661100005, 50.947158606000073 ], [ 5.745539, 50.943508999000073 ], [ 5.74053651600002, 50.935525428000062 ], [ 5.737853053922896, 50.93327258024906 ], [ 5.734935755021106, 50.93082341939602 ], [ 5.728413697000065, 50.925347954000074 ], [ 5.72373250000004, 50.910526499000071 ], [ 5.71537950000004, 50.908508999000048 ], [ 5.70705805700004, 50.911141279000049 ], [ 5.704314369310381, 50.910565773583414 ], [ 5.699535370000035, 50.909563349000052 ], [ 5.697784766521094, 50.90528693876518 ], [ 5.694282141000031, 50.896730653000077 ], [ 5.682239636000077, 50.887448343000074 ], [ 5.678666694000071, 50.881716647000076 ], [ 5.667608565000023, 50.880492152000045 ], [ 5.666633817025637, 50.880103061257728 ], [ 5.646647167000026, 50.872124978000045 ], [ 5.64644814066441, 50.871416849497081 ], [ 5.639812577000043, 50.84780775400003 ], [ 5.642823294092181, 50.841741595395852 ], [ 5.645124500000065, 50.837104999000076 ], [ 5.648020450000047, 50.834332926000059 ], [ 5.650486087000047, 50.831972628000074 ], [ 5.650226566000072, 50.827847136000059 ], [ 5.655254850000063, 50.824570118000054 ], [ 5.655415708000021, 50.819757183000036 ], [ 5.677264537000042, 50.816089280000028 ], [ 5.680472860000066, 50.812960627000052 ], [ 5.687622, 50.811923999000044 ], [ 5.693064069000059, 50.811488197000074 ], [ 5.696411, 50.808547499000042 ], [ 5.698368620000053, 50.804445201000078 ], [ 5.691549773000077, 50.796032672000081 ], [ 5.700296542639264, 50.782147091857318 ], [ 5.700726528000075, 50.781464486000061 ], [ 5.699886478445164, 50.780387039181697 ], [ 5.682000500000072, 50.757446499000082 ], [ 5.694218484035822, 50.756059217174624 ], [ 5.697084769000071, 50.755733767000038 ], [ 5.71976386700004, 50.762764601000072 ], [ 5.72996958300007, 50.75813977100006 ], [ 5.737277332000076, 50.757787213000029 ], [ 5.74603998200007, 50.769308281000065 ], [ 5.763358269000037, 50.78079533500005 ], [ 5.770756240000026, 50.782695012000033 ], [ 5.77703955000004, 50.780935764000048 ], [ 5.784417536000035, 50.768286069000055 ], [ 5.793760562000045, 50.769334761000039 ], [ 5.808213444000046, 50.756371715000057 ], [ 5.830474603000027, 50.75887928700007 ], [ 5.844917, 50.765384999000048 ], [ 5.849627102000056, 50.755369036000047 ], [ 5.86343525500007, 50.763342062000049 ], [ 5.886290695000071, 50.769483682000043 ], [ 5.892073, 50.755237499000032 ], [ 5.90126196600005, 50.752076307000038 ], [ 5.905964026000049, 50.755287948000046 ], [ 5.913640550000025, 50.755314958000042 ], [ 5.91761942100004, 50.750964485000054 ], [ 5.930423738000059, 50.756365820000042 ], [ 5.936111, 50.756801999000061 ], [ 5.948220990000038, 50.759434660000068 ], [ 5.960132027000043, 50.76202392600004 ], [ 5.971998144000054, 50.759749406000026 ], [ 5.975390974000049, 50.755418680000048 ], [ 5.983559996000054, 50.753090216000032 ], [ 6.020999, 50.754295499000079 ], [ 6.039765729000067, 50.745265416000052 ], [ 6.040329917000065, 50.738896522000061 ], [ 6.033917230000043, 50.72926844300008 ], [ 6.037460624000062, 50.719645641000056 ], [ 6.04140729300002, 50.719409198000051 ], [ 6.044988553000053, 50.727841084000033 ], [ 6.059505500000057, 50.724033499000029 ], [ 6.074020345000065, 50.72107690100006 ], [ 6.090623119000043, 50.722258614000054 ], [ 6.102935381000066, 50.722796791000064 ], [ 6.116305505000071, 50.720755029000031 ], [ 6.123237783000036, 50.712440944000036 ], [ 6.125280535000059, 50.705530598000053 ], [ 6.129884785484894, 50.701143861024079 ], [ 6.142148318000068, 50.689459681000073 ], [ 6.145004776000064, 50.681856051000068 ], [ 6.160722609000061, 50.671552489000078 ], [ 6.166450775000044, 50.662104525000075 ], [ 6.183224759000041, 50.650290579000057 ], [ 6.194339399000057, 50.657504477000032 ], [ 6.19324, 50.66407749900003 ], [ 6.196459270000048, 50.659578932000045 ], [ 6.195772504000047, 50.656424980000054 ], [ 6.178623816000027, 50.644611295000061 ], [ 6.167574801000058, 50.643802896000068 ], [ 6.182739741000034, 50.632215292000069 ], [ 6.180368330000022, 50.62892768100005 ], [ 6.176162509000051, 50.627216517000079 ], [ 6.176402127000074, 50.625997433000066 ], [ 6.182441145000041, 50.624292960000048 ], [ 6.188125600000035, 50.627408076000052 ], [ 6.187784299000043, 50.629796868000028 ], [ 6.194143220000058, 50.633517889000075 ], [ 6.200130391000073, 50.631788873000062 ], [ 6.217714685000033, 50.63188419200003 ], [ 6.235452500000065, 50.625923999000065 ], [ 6.251809, 50.626950499000031 ], [ 6.261848213000064, 50.628184993000048 ], [ 6.268842005000067, 50.62534858500004 ], [ 6.268657793000045, 50.619105712000078 ], [ 6.261715500000037, 50.611614499000041 ], [ 6.24875081700003, 50.604065397000056 ], [ 6.248885008000059, 50.597718559000043 ], [ 6.241211274000023, 50.588138196000045 ], [ 6.225281687000063, 50.589885877000029 ], [ 6.219831962000058, 50.582272516000046 ], [ 6.207494649000068, 50.575812811000048 ], [ 6.202296819000026, 50.569312362000062 ], [ 6.189312500000028, 50.566093999000032 ], [ 6.175420897000038, 50.557076056000028 ], [ 6.178238578000048, 50.553278800000044 ], [ 6.178561990000048, 50.542221691000066 ], [ 6.18734020100004, 50.540590674000043 ], [ 6.197840848000055, 50.535039626000071 ], [ 6.19646681200004, 50.531803842000045 ], [ 6.188096665000046, 50.527230842000051 ], [ 6.192200500000069, 50.521055499000056 ], [ 6.20627194900004, 50.520252259000074 ], [ 6.221329103000073, 50.503187347000051 ], [ 6.221247267000024, 50.497913448000077 ], [ 6.225219038000034, 50.49548075000007 ], [ 6.251327271000036, 50.503034118000073 ], [ 6.259552333000045, 50.499095666000073 ], [ 6.269525888000032, 50.503926402000047 ], [ 6.280387562000044, 50.502847831000054 ], [ 6.285005500000068, 50.498964999000066 ], [ 6.297612500000071, 50.497668499000042 ], [ 6.30567, 50.500305499000035 ], [ 6.309075500000063, 50.501411999000027 ], [ 6.314121, 50.49902699900008 ], [ 6.314201, 50.497812999000075 ], [ 6.315556, 50.497042499000031 ], [ 6.330989453000029, 50.492501324000045 ], [ 6.335357090000059, 50.489499472000034 ], [ 6.348514949000048, 50.488477069000055 ], [ 6.341801055000076, 50.483205634000058 ], [ 6.338084078000065, 50.474854102000052 ], [ 6.343193472000053, 50.468998461000069 ], [ 6.341371156000037, 50.461974114000043 ], [ 6.35066069800007, 50.457031440000037 ], [ 6.363170398000022, 50.454275943000027 ], [ 6.371348461000025, 50.455060383000045 ], [ 6.374571862000039, 50.451448277000054 ], [ 6.37735146700004, 50.438286183000059 ], [ 6.375418407000041, 50.430789745000027 ], [ 6.367259009000065, 50.419411647000061 ], [ 6.369300675000034, 50.408709586000043 ], [ 6.356150126000045, 50.391016095000055 ], [ 6.343116072000043, 50.380378397000072 ], [ 6.360915326000054, 50.37083031700007 ], [ 6.369136179000066, 50.358462788000054 ], [ 6.397458936000021, 50.345882064000079 ], [ 6.400765030000059, 50.338880206000056 ], [ 6.407419120000043, 50.33481740600007 ], [ 6.405028500000071, 50.323308499000063 ], [ 6.383243380000067, 50.321556548000046 ], [ 6.373937187000024, 50.313625230000071 ], [ 6.361360868000077, 50.314161759000058 ], [ 6.361019674000033, 50.312644668000075 ], [ 6.359994045000064, 50.308084007000048 ], [ 6.355863, 50.309386499000027 ], [ 6.350576904000036, 50.312644668000075 ], [ 6.342156670000065, 50.317834152000046 ], [ 6.335521866000022, 50.318079313000055 ], [ 6.333173457000044, 50.322443733000057 ], [ 6.327726789000053, 50.323917771000026 ], [ 6.318967911000072, 50.319799186000068 ], [ 6.312659750000023, 50.321478583000044 ], [ 6.307055408000053, 50.319949600000029 ], [ 6.308526937000067, 50.312644668000075 ], [ 6.308785500000056, 50.311360999000044 ], [ 6.296769180000069, 50.308777143000043 ], [ 6.297680018000051, 50.302702478000072 ], [ 6.286813973000051, 50.293805579000036 ], [ 6.28602849300006, 50.284228213000063 ], [ 6.29209, 50.278828999000041 ], [ 6.278267500000027, 50.26673099900006 ], [ 6.276985, 50.266133999000033 ], [ 6.271490561000064, 50.267242355000064 ], [ 6.264219675000049, 50.264991074000079 ], [ 6.257700572000033, 50.267065651000053 ], [ 6.246439189000057, 50.262371717000065 ], [ 6.235720984000068, 50.261988723000059 ], [ 6.227226, 50.258692499000063 ], [ 6.223981, 50.258661499000027 ], [ 6.22283, 50.25724849900007 ], [ 6.215754684000046, 50.256338787000061 ], [ 6.206985536000047, 50.252160199000059 ], [ 6.200103068000033, 50.242217922000066 ], [ 6.197247731000061, 50.238092550000033 ], [ 6.178787262000071, 50.236183936000032 ], [ 6.173927500000048, 50.231626999000071 ], [ 6.176373477000027, 50.226594767000051 ], [ 6.16816994200002, 50.22380004200005 ], [ 6.166886902000044, 50.220866374000082 ], [ 6.177132979000021, 50.21656211800007 ], [ 6.187617336000073, 50.205333495000048 ], [ 6.184698424000032, 50.192088396000031 ], [ 6.189608147000058, 50.187389580000058 ], [ 6.187119224000071, 50.183944083000029 ], [ 6.192752, 50.181873999000061 ], [ 6.184345585000074, 50.17858435100004 ], [ 6.164673014000073, 50.178634009000064 ], [ 6.161192, 50.17462449900006 ], [ 6.160336971619783, 50.174047253382447 ], [ 6.157325616000037, 50.172014231000048 ], [ 6.151800477000052, 50.176307680000036 ], [ 6.146670334000021, 50.176879908000046 ], [ 6.146516589000043, 50.170732117000057 ], [ 6.140762672000051, 50.16805778500003 ], [ 6.146593814000028, 50.16194480200005 ], [ 6.146373464000021, 50.159159894000027 ], [ 6.142423548000068, 50.156135426000048 ], [ 6.132920417000037, 50.154636450000055 ], [ 6.140755186000035, 50.148754814000029 ], [ 6.148382601000037, 50.151351499000043 ], [ 6.15287150000006, 50.150090499000044 ], [ 6.15358705500006, 50.141306532000044 ], [ 6.148594947000049, 50.136593549000054 ], [ 6.13957391100007, 50.134696665000035 ], [ 6.138363, 50.131321999000079 ], [ 6.137662500000033, 50.129951499000072 ], [ 6.133344109000063, 50.129235428000072 ], [ 6.121038216000045, 50.135615676000043 ], [ 6.112317500000074, 50.136119999000073 ], [ 6.115726600000073, 50.144966347000036 ], [ 6.123462253000071, 50.150383472000044 ], [ 6.115884161000054, 50.156182637000029 ], [ 6.119079249000038, 50.163103265000075 ], [ 6.10414438600003, 50.16984199400008 ], [ 6.090623119000043, 50.170502241000065 ], [ 6.08090655500007, 50.170976697000071 ], [ 6.078728768000076, 50.157415783000033 ], [ 6.064428086000021, 50.153999792000036 ], [ 6.045673, 50.157883999000035 ], [ 6.030557047000059, 50.164960812000061 ], [ 6.02489950000006, 50.182779499000048 ], [ 6.002162695000038, 50.176242076000051 ], [ 5.973000601000024, 50.174987032000047 ], [ 5.965034666000065, 50.172066462000032 ], [ 5.962644426000054, 50.161557299000037 ], [ 5.966566638000074, 50.155308096000056 ], [ 5.959302921000074, 50.151335582000058 ], [ 5.96067116200004, 50.132186779000051 ], [ 5.95415550000007, 50.130198499000073 ], [ 5.93415439000006, 50.126844794000078 ], [ 5.930709885000056, 50.126267210000037 ], [ 5.913777319000076, 50.121316063000052 ], [ 5.895269, 50.112216499000056 ], [ 5.89463180100006, 50.101910282000063 ], [ 5.886613014000034, 50.090589320000049 ], [ 5.886729523000042, 50.079293999000072 ], [ 5.868095571000026, 50.073142168000061 ], [ 5.85993931400003, 50.068100122000033 ], [ 5.856644, 50.061632999000039 ], [ 5.857420410000032, 50.056181823000031 ], [ 5.865327931000024, 50.051783202000081 ], [ 5.869228527000075, 50.046848965000038 ], [ 5.857275051000045, 50.03617169100005 ], [ 5.859123147000048, 50.029301153000063 ], [ 5.852731969000047, 50.026874134000082 ], [ 5.850138641000058, 50.021957290000046 ], [ 5.832962672000065, 50.017856257000062 ], [ 5.824916775605138, 50.01446374551292 ], [ 5.819578776000071, 50.012213005000035 ], [ 5.822795733000021, 49.998512490000053 ], [ 5.832431462000045, 49.991077494000081 ], [ 5.84023250000007, 49.989372499000069 ], [ 5.838439106000067, 49.982417936000047 ], [ 5.831973540000035, 49.976984555000058 ], [ 5.811387337000042, 49.971147305000045 ], [ 5.810069, 49.963869499000054 ], [ 5.801483245000043, 49.963203090000036 ], [ 5.79500474200006, 49.965171721000047 ], [ 5.789012409000065, 49.961525811000058 ], [ 5.77703955000004, 49.960947188000034 ], [ 5.771535251000046, 49.949128790000032 ], [ 5.774102159000051, 49.938697041000069 ], [ 5.763863391000029, 49.928974670000059 ], [ 5.763349500000061, 49.915419499000052 ], [ 5.751244120405359, 49.910671469512195 ], [ 5.748186, 49.909471999000061 ], [ 5.740652620000049, 49.903956777000076 ], [ 5.73684219300003, 49.896840232000045 ], [ 5.77703955000004, 49.884055244000081 ], [ 5.782788, 49.875775499000042 ], [ 5.779795003000061, 49.875498107000055 ], [ 5.782430927000064, 49.872464165000054 ], [ 5.77703955000004, 49.869386310000039 ], [ 5.774460097000031, 49.867913671000053 ], [ 5.770134050000024, 49.871643497000036 ], [ 5.764283357000068, 49.869985838000048 ], [ 5.755180417000076, 49.872033656000042 ], [ 5.753572750000046, 49.868749409000031 ], [ 5.758968659000061, 49.856546552000054 ], [ 5.746319, 49.853594999000052 ], [ 5.75553711200007, 49.85096898300003 ], [ 5.756515607875974, 49.849875165232682 ], [ 5.757976040000074, 49.848242612000035 ], [ 5.756347915000049, 49.846059234000052 ], [ 5.74965852400004, 49.846052425000039 ], [ 5.748631240000066, 49.839539841000033 ], [ 5.741811999000049, 49.838556768000046 ], [ 5.739996765000058, 49.835658053000031 ], [ 5.747954807000042, 49.825129262000075 ], [ 5.744254930000068, 49.82017718700007 ], [ 5.750406718000022, 49.814108230000045 ], [ 5.755377500000066, 49.79143349900005 ], [ 5.767902391000064, 49.793908636000026 ], [ 5.77703955000004, 49.793190541000058 ], [ 5.781138053000063, 49.792868433000081 ], [ 5.788056543000039, 49.796118689000082 ], [ 5.79344750000007, 49.790546499000072 ], [ 5.792917579000061, 49.786546070000043 ], [ 5.805793460000075, 49.773995932000048 ], [ 5.809630509000044, 49.766079636000029 ], [ 5.815384300000062, 49.762216805000037 ], [ 5.81820840000006, 49.754567947000055 ], [ 5.822753712000065, 49.750173983000082 ], [ 5.829573448000076, 49.749126846000081 ], [ 5.831383, 49.745250499000065 ], [ 5.831139994000068, 49.741191404000062 ], [ 5.827481803000069, 49.738378158000046 ], [ 5.826179, 49.723608499000079 ], [ 5.834936798000058, 49.724260766000043 ], [ 5.843787618000022, 49.72154759700004 ], [ 5.859311495000043, 49.726545958000031 ], [ 5.86539443700002, 49.726269208000076 ], [ 5.875210408000044, 49.721125004000044 ], [ 5.876004502000058, 49.715874879000069 ], [ 5.886318500000073, 49.70938299900007 ], [ 5.866999011000075, 49.693958019000036 ], [ 5.864446314000077, 49.686822827000071 ], [ 5.862422472000048, 49.681165125000064 ], [ 5.866064239000025, 49.67622332600007 ], [ 5.885992121000072, 49.669420623000065 ], [ 5.890221, 49.670108999000036 ], [ 5.892457780000029, 49.667800730000067 ], [ 5.892771059246919, 49.667721169021725 ], [ 5.909674972000062, 49.663428220000071 ], [ 5.903560497000058, 49.65819391000008 ], [ 5.902512898000055, 49.647051829000077 ], [ 5.907128500000056, 49.638647499000058 ], [ 5.903163500000062, 49.636239499000055 ], [ 5.886837866000064, 49.634474042000079 ], [ 5.883470412000065, 49.63114401100006 ], [ 5.88646, 49.627166499000055 ], [ 5.880083, 49.623359999000058 ], [ 5.876137430000028, 49.619147576000046 ], [ 5.875173159000042, 49.608026875000064 ], [ 5.848778500000037, 49.597373999000069 ], [ 5.851249434000067, 49.58716849700005 ], [ 5.861514407000072, 49.586211497000079 ], [ 5.868503593000071, 49.589029461000052 ], [ 5.870984855000074, 49.587005128000044 ], [ 5.872225548000074, 49.583720177000032 ], [ 5.867602594000061, 49.581013153000072 ], [ 5.870842014000061, 49.579123629000037 ], [ 5.87156440900003, 49.574518318000059 ], [ 5.865348500000039, 49.571714999000051 ], [ 5.859820240000033, 49.567081555000073 ], [ 5.845318777000045, 49.560860867000031 ], [ 5.845472579000045, 49.556591874000048 ], [ 5.841396259000021, 49.553314381000064 ], [ 5.838003320093296, 49.552521580849998 ], [ 5.829151411000055, 49.550453228000038 ], [ 5.824894140000026, 49.551472149000062 ], [ 5.818117, 49.546310499000072 ], [ 5.807443069000044, 49.550122644000055 ], [ 5.79343517500007, 49.551511881000067 ] ] ], [ [ [ 4.686793716152852, 50.003761034507896 ], [ 4.687094177000063, 50.002710910000076 ], [ 4.694556, 49.996509499000069 ], [ 4.684222990720404, 49.996665192462871 ], [ 4.686793716152852, 50.003761034507896 ] ] ] ] } },
{ "type": "Feature", "properties": { "name": "BE0 4" }, "geometry": { "type": "Polygon", "coordinates": [ [ [ 3.246314, 50.652751999000031 ], [ 3.241003841000065, 50.658575750000068 ], [ 3.242078, 50.666667999000026 ], [ 3.243115936000038, 50.669364088000066 ], [ 3.24956405100005, 50.672636014000034 ], [ 3.264180660000022, 50.676880295000046 ], [ 3.253647, 50.69111999900008 ], [ 3.260307228000045, 50.692108303000055 ], [ 3.26039602000003, 50.701025325000046 ], [ 3.252535117000036, 50.704867599000067 ], [ 3.245294, 50.713009499000066 ], [ 3.229464918000076, 50.712458346000062 ], [ 3.22264019000005, 50.710546906000047 ], [ 3.207679201000076, 50.712528356000064 ], [ 3.207236461000036, 50.718274705000056 ], [ 3.192910233000021, 50.724537517000044 ], [ 3.197828799000035, 50.732768857000053 ], [ 3.196317, 50.737033999000062 ], [ 3.1938, 50.737720499000034 ], [ 3.192697, 50.739009999000075 ], [ 3.187972, 50.740005499000063 ], [ 3.185664, 50.744067999000038 ], [ 3.185632500000054, 50.747551499000053 ], [ 3.184267, 50.749027499000078 ], [ 3.183316500000046, 50.750199999000074 ], [ 3.182139, 50.751651499000047 ], [ 3.179361, 50.755077499000038 ], [ 3.176996, 50.756164499000079 ], [ 3.171683, 50.758609999000043 ], [ 3.171536, 50.762050499000054 ], [ 3.168536500000073, 50.764514499000029 ], [ 3.1649, 50.767501999000046 ], [ 3.163283500000034, 50.769812999000067 ], [ 3.161578, 50.77225099900005 ], [ 3.152140608000025, 50.781854195000051 ], [ 3.150166987000034, 50.789701601000047 ], [ 3.125942641000051, 50.786852890000034 ], [ 3.114947606000044, 50.793817365000052 ], [ 3.110611409000057, 50.792761876000043 ], [ 3.10597309800005, 50.783345645000054 ], [ 3.098481, 50.779018999000073 ], [ 3.090169, 50.774379499000077 ], [ 3.086844, 50.772945499000059 ], [ 3.081419, 50.772655499000052 ], [ 3.076941, 50.774485499000036 ], [ 3.075013500000068, 50.775273499000036 ], [ 3.067511, 50.778339499000026 ], [ 3.06196650000004, 50.779820999000037 ], [ 3.058719, 50.780688999000063 ], [ 3.050073062000024, 50.77819998800004 ], [ 3.041813386000058, 50.775822051000034 ], [ 3.035247, 50.770137999000042 ], [ 3.02508724300003, 50.770868329000052 ], [ 3.018708500000059, 50.773532999000054 ], [ 3.015069933000063, 50.773194172000046 ], [ 3.011207669000044, 50.770200155000055 ], [ 3.005893542000024, 50.766080343000056 ], [ 2.983272, 50.757171499000037 ], [ 2.972211145000074, 50.75021143500004 ], [ 2.96415931000007, 50.749957731000052 ], [ 2.95662197200005, 50.752938341000061 ], [ 2.940103, 50.745349999000041 ], [ 2.937994250000031, 50.740194227000075 ], [ 2.944161434000023, 50.732037020000064 ], [ 2.93715, 50.730037499000048 ], [ 2.930551593000075, 50.726246246000073 ], [ 2.930049451000059, 50.711660885000072 ], [ 2.922303, 50.702792999000053 ], [ 2.911644598000066, 50.703099605000034 ], [ 2.909228494000047, 50.694466251000051 ], [ 2.900403, 50.693271499000048 ], [ 2.886391175000028, 50.705703569000036 ], [ 2.870144, 50.702899999000067 ], [ 2.863276, 50.70834349900008 ], [ 2.847597371000063, 50.722355622000066 ], [ 2.819703121000032, 50.716248396000026 ], [ 2.813247, 50.716933999000048 ], [ 2.790758867000022, 50.725957203000064 ], [ 2.789971821000051, 50.73149924300003 ], [ 2.78265254400003, 50.741804109000043 ], [ 2.782789999000045, 50.750512150000077 ], [ 2.764203603000055, 50.756355002000078 ], [ 2.762992047000068, 50.761799072000031 ], [ 2.75743086500006, 50.763483883000049 ], [ 2.761117664000039, 50.770779231000063 ], [ 2.754281, 50.774589499000058 ], [ 2.749082052000063, 50.778747932000044 ], [ 2.738531, 50.780582499000047 ], [ 2.725017861000026, 50.794185178000077 ], [ 2.721999578000066, 50.802042644000039 ], [ 2.724736279000069, 50.808927247000042 ], [ 2.712383, 50.814994999000078 ], [ 2.708197769000037, 50.81350715800005 ], [ 2.680295926000042, 50.813523710000027 ], [ 2.669784333000052, 50.821720667000079 ], [ 2.662292, 50.816272499000036 ], [ 2.657242, 50.813567999000043 ], [ 2.63495, 50.812743999000077 ], [ 2.625512649000029, 50.835807957000043 ], [ 2.617176914000026, 50.839309913000079 ], [ 2.615081616000055, 50.84782737300003 ], [ 2.610628009000038, 50.849701579000055 ], [ 2.600905803000046, 50.848690497000064 ], [ 2.599139, 50.853278999000054 ], [ 2.61155655400006, 50.863941212000043 ], [ 2.607278, 50.872581499000034 ], [ 2.609678681000048, 50.880042389000039 ], [ 2.605204309000044, 50.887272815000074 ], [ 2.609147291000056, 50.89614716300008 ], [ 2.604694, 50.906337499000074 ], [ 2.607297, 50.908298499000068 ], [ 2.607919500000037, 50.910014999000055 ], [ 2.606653, 50.91128149900004 ], [ 2.607036, 50.912689499000066 ], [ 2.605033, 50.913932999000053 ], [ 2.603661, 50.916400999000075 ], [ 2.598925, 50.915004499000077 ], [ 2.593528, 50.914550999000028 ], [ 2.591642, 50.915767499000026 ], [ 2.589983, 50.919090499000049 ], [ 2.5948, 50.920768499000076 ], [ 2.600045, 50.925165999000058 ], [ 2.603058, 50.927692499000045 ], [ 2.608975, 50.931018999000059 ], [ 2.617150637000066, 50.934492400000067 ], [ 2.618677797000032, 50.941130071000032 ], [ 2.628984370000069, 50.943293726000036 ], [ 2.63196765400005, 50.94613944200006 ], [ 2.618780900000047, 50.967014806000066 ], [ 2.611619990000065, 50.973302588000081 ], [ 2.60741746900004, 50.98224057200008 ], [ 2.609556, 50.985637499000063 ], [ 2.604477201000066, 50.990886340000031 ], [ 2.594463590000032, 50.99245699100004 ], [ 2.577782573000036, 51.000299493000057 ], [ 2.572456, 51.013084499000058 ], [ 2.575306660000024, 51.01581073300008 ], [ 2.565999, 51.046272499000054 ], [ 2.565760243353253, 51.047106322819047 ], [ 2.559194, 51.070037999000078 ], [ 2.546011, 51.089381999000068 ], [ 2.546183962910307, 51.08944312041065 ], [ 2.546263456693708, 51.089314341384153 ], [ 2.588090657957878, 51.103109479319357 ], [ 2.643735409162076, 51.125713944343204 ], [ 2.676536248624235, 51.135440244448858 ], [ 2.679293830000063, 51.136120518000041 ], [ 2.681620347374562, 51.136947811664307 ], [ 2.697914004627961, 51.141779303871942 ], [ 2.710725983205274, 51.147427185917856 ], [ 2.731641382090789, 51.155254494766972 ], [ 2.74120581119945, 51.158332824400503 ], [ 2.749264593290977, 51.161492864499152 ], [ 2.754147160063872, 51.163407435039893 ], [ 2.761270477000039, 51.165696437000065 ], [ 2.764815371000054, 51.166835488000061 ], [ 2.780622197724631, 51.173788926892016 ], [ 2.783881425687468, 51.175066947681785 ], [ 2.906479000805575, 51.22866845088862 ], [ 2.918464251177016, 51.23506938720557 ], [ 2.923129116000041, 51.235584789000029 ], [ 2.927911765489284, 51.23755699897599 ], [ 2.929002404537613, 51.237683773087866 ], [ 3.000564456284877, 51.266019105797398 ], [ 3.061090349840015, 51.291980505296181 ], [ 3.075325727500484, 51.301041006737478 ], [ 3.110862903368332, 51.311893772268604 ], [ 3.11853421849766, 51.314236529743859 ], [ 3.136885808453109, 51.318860919154559 ], [ 3.172323227335312, 51.32723331436631 ], [ 3.181843400153042, 51.330772042296019 ], [ 3.173444751448147, 51.342983251276806 ], [ 3.169849449000026, 51.350006264000058 ], [ 3.176977136562168, 51.354953301209086 ], [ 3.181328705558657, 51.357973547755478 ], [ 3.184964656493889, 51.347398639036129 ], [ 3.194800138815737, 51.343757867731625 ], [ 3.217527747108164, 51.34014415702751 ], [ 3.223969221302809, 51.347692846847679 ], [ 3.214284300780008, 51.356276154521169 ], [ 3.222792383835542, 51.358323932516619 ], [ 3.22638398600003, 51.351707837000049 ], [ 3.227534, 51.340064999000049 ], [ 3.229498590611062, 51.340315941197659 ], [ 3.22953867956673, 51.340166449422384 ], [ 3.251190543109345, 51.342482924047999 ], [ 3.266544580268544, 51.345991968954479 ], [ 3.278036287301271, 51.350389097319024 ], [ 3.294071144000043, 51.354948535000062 ], [ 3.311106725171675, 51.358484800613176 ], [ 3.324191110802422, 51.36120087249288 ], [ 3.363399744402898, 51.367909670295262 ], [ 3.368010729857102, 51.367081915109914 ], [ 3.374378601000046, 51.35919498100003 ], [ 3.374305486000026, 51.348933342000066 ], [ 3.383174152000038, 51.341132891000029 ], [ 3.384897142000057, 51.335335206000082 ], [ 3.359358798000073, 51.315373002000058 ], [ 3.372048500000062, 51.305754499000045 ], [ 3.376119347000042, 51.302300532000061 ], [ 3.367437654000071, 51.298985071000061 ], [ 3.366596091000076, 51.296818768000037 ], [ 3.370265435000022, 51.292250327000033 ], [ 3.379591760000039, 51.287428787000067 ], [ 3.381129010000052, 51.281853480000052 ], [ 3.376090848000047, 51.277946228000076 ], [ 3.380661, 51.274299499000051 ], [ 3.387083165000035, 51.273030332000076 ], [ 3.407563337000056, 51.257511700000066 ], [ 3.415756466000062, 51.259083462000035 ], [ 3.422288246000051, 51.255797896000047 ], [ 3.42794619700004, 51.245163631000082 ], [ 3.429055156942579, 51.24498408641066 ], [ 3.448825988000067, 51.241783118000058 ], [ 3.475020500000028, 51.242671999000038 ], [ 3.52684531400007, 51.246520062000059 ], [ 3.51625288200006, 51.286819123000043 ], [ 3.528202352000051, 51.288384664000034 ], [ 3.537004956000033, 51.283775357000081 ], [ 3.544153675000075, 51.290707441000052 ], [ 3.555431747000057, 51.290370052000071 ], [ 3.562268493000033, 51.295508812000037 ], [ 3.57539, 51.28876660800006 ], [ 3.581994644000076, 51.287683909000066 ], [ 3.586625149000042, 51.293450318000055 ], [ 3.582000460000074, 51.298530674000062 ], [ 3.589802804000044, 51.30523443900006 ], [ 3.615577816000041, 51.296995242000037 ], [ 3.621597777000034, 51.293333705000066 ], [ 3.638922716000025, 51.288888652000026 ], [ 3.65718286300006, 51.290127879000067 ], [ 3.669707467000023, 51.28572865700005 ], [ 3.678615399000023, 51.281063772000039 ], [ 3.687064500000076, 51.280853499000045 ], [ 3.691040902908225, 51.278095834016206 ], [ 3.693957, 51.276073499000063 ], [ 3.715074058000027, 51.271953631000031 ], [ 3.725062291000029, 51.273117911000043 ], [ 3.754028582000046, 51.269743391000077 ], [ 3.764104537000037, 51.26151296900008 ], [ 3.769360910000046, 51.260575089000042 ], [ 3.775602495000044, 51.263096158000053 ], [ 3.794093362000069, 51.256187088000047 ], [ 3.789496445000054, 51.244652425000027 ], [ 3.790755500000046, 51.214389999000048 ], [ 3.80190243100003, 51.210515739000073 ], [ 3.807340982000028, 51.212931753000078 ], [ 3.823304516000064, 51.209128810000038 ], [ 3.836971651000056, 51.213220012000079 ], [ 3.842964300000062, 51.213040252000042 ], [ 3.852842599000041, 51.21274393200008 ], [ 3.856339500000047, 51.211055999000052 ], [ 3.888112170000056, 51.222390331000042 ], [ 3.892160804000071, 51.219382222000036 ], [ 3.891992979000065, 51.216728659000069 ], [ 3.878752596000027, 51.207750684000075 ], [ 3.88632769000003, 51.201030278000076 ], [ 3.894015237000076, 51.203037418000065 ], [ 3.901259502000073, 51.202590773000054 ], [ 3.918489, 51.208186999000077 ], [ 3.917064607000043, 51.214464331000045 ], [ 3.928968810000072, 51.219471124000052 ], [ 3.937792330000036, 51.212404154000069 ], [ 3.945612428000061, 51.21523344700006 ], [ 3.958492518000071, 51.216487838000035 ], [ 3.96587777700006, 51.223939384000062 ], [ 3.977666500000055, 51.225131999000041 ], [ 3.98552250900002, 51.233065039000053 ], [ 4.00567650000005, 51.241822499000079 ], [ 4.005853507554954, 51.241900466199006 ], [ 4.008853549000037, 51.243221906000031 ], [ 4.018835695000064, 51.245233466000059 ], [ 4.025641981000035, 51.241963568000074 ], [ 4.03605858100002, 51.245011391000048 ], [ 4.040685322000058, 51.24188821000007 ], [ 4.052290277000054, 51.242692807000026 ], [ 4.060652557000026, 51.24451644800007 ], [ 4.067155192675038, 51.247927858897341 ], [ 4.071155500000032, 51.250026499000057 ], [ 4.165755500000046, 51.292728499000077 ], [ 4.215951889000053, 51.333092815000043 ], [ 4.227670139994169, 51.342510085369923 ], [ 4.234817500000077, 51.348253999000065 ], [ 4.242049, 51.353966999000079 ], [ 4.226164089000065, 51.360486464000076 ], [ 4.218264220000037, 51.373026208000056 ], [ 4.243669500000067, 51.374729499000068 ], [ 4.268858147245069, 51.375633316404794 ], [ 4.279565, 51.376017499000056 ], [ 4.333144682000068, 51.377395234000062 ], [ 4.338348019938258, 51.365031366875037 ], [ 4.341158818000054, 51.358352513000057 ], [ 4.34973739000003, 51.358170517000076 ], [ 4.355473969000059, 51.358048814000028 ], [ 4.368139, 51.356033499000034 ], [ 4.385641408000026, 51.354647646000046 ], [ 4.394777500000032, 51.355804499000044 ], [ 4.419809500000042, 51.364547499000082 ], [ 4.430557144000034, 51.36452362700004 ], [ 4.425894347000053, 51.371115083000063 ], [ 4.430393965000064, 51.37547519900005 ], [ 4.39424901292556, 51.40628400165965 ], [ 4.390627164000023, 51.409371150000027 ], [ 4.38418451800004, 51.420742154000038 ], [ 4.391221478000034, 51.426593693000029 ], [ 4.395133500000043, 51.426872499000069 ], [ 4.394843344000037, 51.430557639000028 ], [ 4.398276619000058, 51.434248457000081 ], [ 4.395602817000054, 51.436581822000051 ], [ 4.395784161000051, 51.442143035000072 ], [ 4.392000164000024, 51.445617755000058 ], [ 4.380433589000063, 51.44717948300007 ], [ 4.382724762000066, 51.449510777000057 ], [ 4.391183, 51.451369999000065 ], [ 4.441251081000075, 51.468251611000028 ], [ 4.46444483800002, 51.471300331000066 ], [ 4.475708594000025, 51.477642408000065 ], [ 4.486697500000048, 51.477360499000042 ], [ 4.491134966516885, 51.477781852514816 ], [ 4.536755296000024, 51.482113668000068 ], [ 4.542946119489946, 51.477322453719374 ], [ 4.53676330375878, 51.458405059888598 ], [ 4.532992500000034, 51.453407499000036 ], [ 4.530349190000038, 51.448436659000038 ], [ 4.531546156757949, 51.442442296516852 ], [ 4.481998624340012, 51.290843053575109 ], [ 4.742394143311781, 50.889580264377869 ], [ 4.782999900041132, 50.855990906111032 ], [ 4.713006308991731, 50.775879714979361 ], [ 4.526732326134774, 50.731635016428555 ], [ 4.330116588918871, 50.899636213634778 ], [ 4.313226818390227, 50.950849063197161 ], [ 3.975050105836265, 50.954103224447238 ], [ 3.916922071006283, 50.848072646057794 ], [ 3.844485958214984, 50.761892193470672 ], [ 3.833619486311253, 50.439651174689338 ], [ 3.80389661647856, 50.354217967457849 ], [ 3.797818767000024, 50.351550444000054 ], [ 3.79540566232325, 50.351855213197176 ], [ 3.782799156000067, 50.353447384000049 ], [ 3.767066791000047, 50.352278625000054 ], [ 3.763511, 50.348071999000069 ], [ 3.748158799000066, 50.350633839000068 ], [ 3.740791452000053, 50.347803457000055 ], [ 3.735985767000045, 50.343338279000079 ], [ 3.734461, 50.332320999000046 ], [ 3.730096768000067, 50.328172275000043 ], [ 3.730242485000076, 50.312644668000075 ], [ 3.731694, 50.311900999000045 ], [ 3.727891845000045, 50.309918660000051 ], [ 3.723672365000027, 50.310662618000038 ], [ 3.722146187000021, 50.312644668000075 ], [ 3.718962084000054, 50.316779602000054 ], [ 3.710548976000041, 50.318827321000072 ], [ 3.710928750000051, 50.314324330000034 ], [ 3.713385540000047, 50.312644668000075 ], [ 3.716464024000061, 50.310539882000057 ], [ 3.71694492000006, 50.305470296000067 ], [ 3.710389, 50.303165499000045 ], [ 3.708039, 50.304851499000051 ], [ 3.701955098000042, 50.310614005000048 ], [ 3.697142345000032, 50.312644668000075 ], [ 3.695163683000033, 50.313479507000068 ], [ 3.694672748000073, 50.316207992000045 ], [ 3.690173872000059, 50.31856679200007 ], [ 3.69302045400002, 50.32172091800004 ], [ 3.685942567000041, 50.32524638600006 ], [ 3.684878, 50.327548999000044 ], [ 3.68025, 50.328706499000077 ], [ 3.680364, 50.330177499000058 ], [ 3.678597, 50.331074999000066 ], [ 3.678417, 50.332832499000062 ], [ 3.675658, 50.332851499000071 ], [ 3.673633, 50.334914999000034 ], [ 3.677608, 50.340423499000053 ], [ 3.672131, 50.343898999000032 ], [ 3.669707467000023, 50.344435065000027 ], [ 3.665778502000023, 50.347605491000081 ], [ 3.666438003000053, 50.361831270000039 ], [ 3.657756, 50.370521499000063 ], [ 3.665258, 50.379882999000074 ], [ 3.669707467000023, 50.384128882000027 ], [ 3.669707467000023, 50.386434550000047 ], [ 3.673198227000057, 50.38975268300004 ], [ 3.673389, 50.409637499000041 ], [ 3.672764500000028, 50.411024999000063 ], [ 3.670192, 50.416740999000069 ], [ 3.670294, 50.419357499000057 ], [ 3.672153, 50.42042899900008 ], [ 3.672283, 50.422050499000079 ], [ 3.669707467000023, 50.423014630000068 ], [ 3.668792, 50.436443499000063 ], [ 3.667958360000057, 50.439461381000058 ], [ 3.659841977000042, 50.445025882000039 ], [ 3.663391140000044, 50.453959575000056 ], [ 3.65551, 50.461735499000042 ], [ 3.649142743000027, 50.464058643000044 ], [ 3.643606, 50.46316149900008 ], [ 3.640503, 50.465856999000039 ], [ 3.637839, 50.468170499000053 ], [ 3.633069500000033, 50.474214499000027 ], [ 3.632231, 50.475276999000073 ], [ 3.631628, 50.476549999000042 ], [ 3.630328, 50.479293999000049 ], [ 3.632094, 50.480048999000076 ], [ 3.626943500000039, 50.482705999000075 ], [ 3.62398, 50.48423499900008 ], [ 3.619072, 50.486766999000054 ], [ 3.615081500000031, 50.490398999000035 ], [ 3.606703710000033, 50.496661017000065 ], [ 3.585925, 50.490581499000029 ], [ 3.580112733000021, 50.492148002000079 ], [ 3.569811410000057, 50.500259553000035 ], [ 3.558586, 50.498405499000057 ], [ 3.539272293000067, 50.495076146000031 ], [ 3.522786194000048, 50.495075523000025 ], [ 3.506631, 50.489139499000032 ], [ 3.501816778000034, 50.48757377000004 ], [ 3.499602538000033, 50.488602822000075 ], [ 3.49707174200006, 50.498965327000064 ], [ 3.504412219000073, 50.506644770000037 ], [ 3.515086930000052, 50.512335068000027 ], [ 3.518737068000064, 50.523144118000062 ], [ 3.49906, 50.529891999000029 ], [ 3.491094451000038, 50.528501672000061 ], [ 3.475428337000039, 50.532947277000062 ], [ 3.470356, 50.53261549900003 ], [ 3.454734062000057, 50.519542591000061 ], [ 3.450042, 50.507209999000054 ], [ 3.439406, 50.507217499000035 ], [ 3.43631754300003, 50.50964517400007 ], [ 3.428135486000031, 50.504600896000056 ], [ 3.405514, 50.498767999000052 ], [ 3.391297144000021, 50.497644753000031 ], [ 3.377233, 50.490970499000071 ], [ 3.37105549100005, 50.493763069000067 ], [ 3.36105455400002, 50.503462864000028 ], [ 3.334672, 50.507888999000045 ], [ 3.328822, 50.508109999000055 ], [ 3.327144, 50.509387999000069 ], [ 3.327655500000049, 50.51257799900003 ], [ 3.326583500000027, 50.513877999000044 ], [ 3.324803, 50.513087999000049 ], [ 3.320122500000025, 50.51877199900008 ], [ 3.312408, 50.518745499000033 ], [ 3.305294, 50.519981499000039 ], [ 3.301817, 50.521305999000049 ], [ 3.300128, 50.521948999000074 ], [ 3.294628, 50.524043999000071 ], [ 3.292681, 50.523761499000045 ], [ 3.286492, 50.527568999000039 ], [ 3.284540352000022, 50.534300028000075 ], [ 3.279698849000056, 50.538587243000052 ], [ 3.281264, 50.555309999000031 ], [ 3.278994, 50.555228999000065 ], [ 3.276017, 50.558253999000044 ], [ 3.284055680000051, 50.562004624000053 ], [ 3.27854349200004, 50.565081980000059 ], [ 3.282051265000064, 50.575375271000041 ], [ 3.276133, 50.581672499000035 ], [ 3.27850227600004, 50.594888500000081 ], [ 3.270942, 50.605495499000028 ], [ 3.268846788000076, 50.612456960000031 ], [ 3.255961855000066, 50.622428916000047 ], [ 3.258669, 50.62815499900006 ], [ 3.250622, 50.636127499000054 ], [ 3.25046837942531, 50.636253103817332 ], [ 3.245227544000045, 50.640538169000081 ], [ 3.248964546000025, 50.647637762000045 ], [ 3.245047, 50.651408999000068 ], [ 3.246314, 50.652751999000031 ] ] ] } }
]
}
